[{"OBJECT_NAME":"STARLINK-4597","OBJECT_ID":"2022-104BE","EPOCH":"2026-03-09T17:19:03.019872","MEAN_MOTION":15.08817331,"ECCENTRICITY":0.00011555,"INCLINATION":53.2172,"RA_OF_ASC_NODE":223.7263,"ARG_OF_PERICENTER":93.8701,"MEAN_ANOMALY":266.2424,"EPHEMERIS_TYPE":0,"CLASSIFICATION_TYPE":"U","NORAD_CAT_ID":53640,"ELEMENT_SET_NO":999,"REV_AT_EPOCH":19623,"BSTAR":-1.1622224e-5,"MEAN_MOTION_DOT":-4.73e-6,"MEAN_MOTION_DDOT":0},{"OBJECT_NAME":"FENGYUN 1C DEB","OBJECT_ID":"1999-025FK","EPOCH":"2026-03-09T17:46:38.104320","MEAN_MOTION":14.84141288,"ECCENTRICITY":0.01116123,"INCLINATION":98.9208,"RA_OF_ASC_NODE":354.5977,"ARG_OF_PERICENTER":225.7574,"MEAN_ANOMALY":200.963,"EPHEMERIS_TYPE":0,"CLASSIFICATION_TYPE":"U","NORAD_CAT_ID":29865,"ELEMENT_SET_NO":999,"REV_AT_EPOCH":2048,"BSTAR":0.00075888297,"MEAN_MOTION_DOT":7.012e-5,"MEAN_MOTION_DDOT":0}]
